<?xml version="1.0" encoding="UTF-8"?>
<osm generator="Overpass API" version="0.6">
    <note>The data included in this document is from www.openstreetmap.org. The data is made
        available under ODbL.
    </note>
    <meta osm_base="2014-08-09T16:36:02Z" />

    <node id="26862779" lat="45.3082229" lon="5.8555566">
        <tag k="ele" v="2062" />
        <tag k="name" v="Dent de Crolles" />
        <tag k="natural" v="peak" />
        <tag k="wikipedia" v="fr:Dent de Crolles" />
    </node>
    <node id="26863529" lat="45.2346628" lon="5.7102326">
        <tag k="ele" v="1298" />
        <tag k="name" v="Le Néron" />
        <tag k="natural" v="peak" />
        <tag k="wikipedia" v="fr:Néron (Isère)" />
    </node>
    <node id="26863773" lat="44.9918610" lon="5.7245036">
        <tag k="ele" v="1711" />
        <tag k="name" v="La Peyrouse" />
        <tag k="natural" v="peak" />
    </node>
    <node id="26864747" lat="45.1686389" lon="5.9881723">
        <tag k="ele" v="2926" />
        <tag k="name" v="Croix de Belledonne" />
        <tag k="natural" v="peak" />
        <tag k="summit:cross" v="yes" />
        <tag k="wikipedia" v="fr:Croix de Belledonne" />
    </node>
    <node id="277694145" lat="45.2883446" lon="5.7385398">
        <tag k="ele" v="1771" />
        <tag k="name" v="La Pinéa" />
        <tag k="natural" v="peak" />
        <tag k="wikipedia" v="fr:Pinéa" />
    </node>
    <node id="315917192" lat="45.2008395" lon="5.9805435">
        <tag k="ele" v="2506" />
        <tag k="name" v="Grand Replomb" />
        <tag k="natural" v="peak" />
    </node>
    <node id="316033846" lat="45.1308934" lon="5.9308880">
        <tag k="ele" v="2448" />
        <tag k="name" v="Grand Van" />
        <tag k="natural" v="peak" />
        <tag k="note"
            v="Le sommet est une crête E-O de 50 m. Point mis à l'E au niveau de la ligne de partage des eaux. Un autre sommet plus à l'O, hors crête, avec kairn (et plus haut?) existe aussi." />
        <tag k="source" v="GPS" />
    </node>
    <node id="316033862" lat="45.1371857" lon="5.9154659">
        <tag k="created_by" v="Potlatch 0.10f" />
        <tag k="ele" v="2232" />
        <tag k="name" v="Grand Eulier" />
        <tag k="natural" v="peak" />
    </node>
    <node id="316034128" lat="45.2369077" lon="5.7606415">
        <tag k="alt_name" v="Croix de l'Izon" />
        <tag k="ele" v="1359" />
        <tag k="name" v="Saint-Eynard" />
        <tag k="natural" v="peak" />
        <tag k="wikipedia" v="fr:Mont Saint-Eynard" />
    </node>
    <node id="318114601" lat="45.1754603" lon="5.9565770">
        <tag k="created_by" v="Potlatch 0.10f" />
        <tag k="ele" v="2596" />
        <tag k="name" v="Petite Lance de Domène" />
        <tag k="natural" v="peak" />
    </node>
    <node id="318115623" lat="45.1348797" lon="5.9345111">
        <tag k="created_by" v="Potlatch 0.10f" />
        <tag k="ele" v="2526" />
        <tag k="name" v="Grand Sorbier" />
        <tag k="natural" v="peak" />
    </node>
    <node id="355673746" lat="45.1835567" lon="5.9505127">
        <tag k="ele" v="2195" />
        <tag k="name" v="Pointe de la Sitre" />
        <tag k="natural" v="peak" />
        <tag k="source"
            v="cadastre-dgi-fr source : Direction Générale des Impôts - Cadastre ; mise à jour : 2009" />
    </node>
    <node id="373890761" lat="45.0901027" lon="5.6200194">
        <tag k="ele" v="1966" />
        <tag k="name" v="Pic Saint-Michel" />
        <tag k="natural" v="peak" />
    </node>
    <node id="416114868" lat="45.2805648" lon="5.8383608">
        <tag k="ele" v="1217" />
        <tag k="name" v="Château Nardent" />
        <tag k="natural" v="peak" />
    </node>
    <node id="464779382" lat="45.0394469" lon="5.9142883">
        <tag k="ele" v="2696" />
        <tag k="name" v="Le Petit Taillefer" />
        <tag k="natural" v="peak" />
    </node>
    <node id="471087701" lat="45.1743072" lon="5.9472225">
        <tag k="ele" v="2405" />
        <tag k="natural" v="peak" />
    </node>
    <node id="471087728" lat="45.1762807" lon="5.9428675">
        <tag k="ele" v="2355" />
        <tag k="name" v="Petite Lance du Crozet" />
        <tag k="natural" v="peak" />
    </node>
    <node id="531732578" lat="45.1549040" lon="5.7989500">
        <tag k="ele" v="903" />
        <tag k="name" v="Le Fournet" />
        <tag k="natural" v="peak" />
        <tag k="source"
            v="cadastre-dgi-fr source : Direction Générale des Impôts - Cadastre ; mise à jour :2009" />
    </node>
    <node id="580959540" lat="45.2117535" lon="6.0130862">
        <tag k="ele" v="2312" />
        <tag k="name" v="Pointe du Sciallet" />
        <tag k="natural" v="peak" />
    </node>
    <node id="580959543" lat="45.2138395" lon="6.0162190">
        <tag k="ele" v="2286" />
        <tag k="name" v="Pointe du Sifflet" />
        <tag k="natural" v="peak" />
    </node>
    <node id="580959544" lat="45.2001898" lon="6.0000251">
        <tag k="ele" v="2622" />
        <tag k="name" v="Ferrouillet - Pointe Sud" />
        <tag k="natural" v="peak" />
    </node>
    <node id="580959545" lat="45.2025619" lon="5.9982803">
        <tag k="ele" v="2587" />
        <tag k="name" v="Ferrouillet - Pointe Centrale Sud" />
        <tag k="natural" v="peak" />
    </node>
    <node id="580959546" lat="45.2053739" lon="5.9984091">
        <tag k="ele" v="2571" />
        <tag k="name" v="Pointe Centrale Nord" />
        <tag k="natural" v="peak" />
    </node>
    <node id="580959547" lat="45.2319864" lon="6.0172890">
        <tag k="ele" v="2325" />
        <tag k="name" v="Jas des Lièvres" />
        <tag k="natural" v="peak" />
    </node>
    <node id="580959548" lat="45.2075811" lon="6.0062626">
        <tag k="ele" v="2475" />
        <tag k="name" v="Pointe de la Scia" />
        <tag k="natural" v="peak" />
    </node>
    <node id="580981367" lat="45.1875410" lon="5.9875644">
        <tag k="ele" v="2755" />
        <tag k="name" v="Rocher de l'Homme" />
        <tag k="natural" v="peak" />
    </node>
    <node id="580981368" lat="45.1712625" lon="5.9916942">
        <tag k="ele" v="2977" />
        <tag k="name" v="Grand Pic de Belledonne" />
        <tag k="natural" v="peak" />
        <tag k="source" v="GPS" />
        <tag k="wikipedia" v="fr:Grand Pic de Belledonne" />
    </node>
    <node id="580981369" lat="45.1710024" lon="5.9749115">
        <tag k="ele" v="2693" />
        <tag k="name" v="Pic Coutet" />
        <tag k="natural" v="peak" />
    </node>
    <node id="580981370" lat="45.1618647" lon="5.9708345">
        <tag k="ele" v="2802" />
        <tag k="name" v="Pic du Grand Doménon" />
        <tag k="natural" v="peak" />
        <tag k="wikipedia" v="fr:Pic du Grand Doménon" />
    </node>
    <node id="580981377" lat="45.1572374" lon="5.9589657">
        <tag k="ele" v="2741" />
        <tag k="name" v="Grande Lauzière" />
        <tag k="natural" v="peak" />
        <tag k="wikipedia" v="fr:Grande Lauzière" />
    </node>
    <node id="581058545" lat="45.0390264" lon="5.9399890">
        <tag k="ele" v="2839" />
        <tag k="name" v="La Pyramide" />
        <tag k="natural" v="peak" />
    </node>
    <node id="581058546" lat="45.0435447" lon="5.9409331">
        <tag k="ele" v="2783" />
        <tag k="name" v="Les Rochères" />
        <tag k="natural" v="peak" />
    </node>
    <node id="670140449" lat="45.1864372" lon="5.5923808">
        <tag k="description" v="Borne en granit gravée IGN - Point vu en place en 1952" />
        <tag k="ele" v="1709.36" />
        <tag k="man_made" v="survey_point" />
        <tag k="name" v="Charande" />
        <tag k="natural" v="peak" />
        <tag k="note"
            v="Ne pas déplacer ce point, cf. - Do not move this node, see - http://wiki.openstreetmap.org/wiki/WikiProject_France/Repères_Géodésiques#Permanence_des_rep.C3.A8res" />
        <tag k="ref" v="3802105 - 1" />
        <tag k="source" v="©IGN 2010 dans le cadre de la cartographie réglementaire" />
        <tag k="url"
            v="http://ancien-geodesie.ign.fr/fiche_point.asp?num_site=3802105&amp;no_ptg=01&amp;numero_f50=3234" />
    </node>
    <node id="670141308" lat="45.0393848" lon="5.9241892">
        <tag k="description"
            v="Borne SGA : Face supérieure : Repère centre - Point vu en place en 1987" />
        <tag k="ele" v="2857.4" />
        <tag k="man_made" v="survey_point" />
        <tag k="name" v="Le Taillefer" />
        <tag k="natural" v="peak" />
        <tag k="note"
            v="Ne pas déplacer ce point, cf. - Do not move this node, see - http://wiki.openstreetmap.org/wiki/WikiProject_France/Repères_Géodésiques#Permanence_des_rep.C3.A8res" />
        <tag k="ref" v="38207A - 1" />
        <tag k="source" v="©IGN 2010 dans le cadre de la cartographie réglementaire" />
        <tag k="url"
            v="http://ancien-geodesie.ign.fr/fiche_point.asp?num_site=38207A&amp;no_ptg=01&amp;numero_f50=3335" />
    </node>
    <node id="670141465" lat="45.1001458" lon="5.7675604">
        <tag k="description"
            v="Borne SGA : Repère hémisphérique 1994 en laiton de 18 mm de diamètre - Point vu en place en 2006" />
        <tag k="ele" v="733.16" />
        <tag k="man_made" v="survey_point" />
        <tag k="name" v="Bellevue" />
        <tag k="natural" v="peak" />
        <tag k="note"
            v="Ne pas déplacer ce point, cf. - Do not move this node, see - http://wiki.openstreetmap.org/wiki/WikiProject_France/Repères_Géodésiques#Permanence_des_rep.C3.A8res" />
        <tag k="ref" v="3825201 - B" />
        <tag k="source" v="©IGN 2010 dans le cadre de la cartographie réglementaire" />
        <tag k="url"
            v="http://ancien-geodesie.ign.fr/fiche_point.asp?num_site=3825201&amp;no_ptg=01&amp;numero_f50=3335" />
    </node>
    <node id="670142546" lat="45.2529510" lon="5.7578016">
        <tag k="description" v="Borne en granit gravée IGN (1949) - Point vu en place en 1950" />
        <tag k="ele" v="1406.55" />
        <tag k="man_made" v="survey_point" />
        <tag k="name" v="L'Écoutoux" />
        <tag k="natural" v="peak" />
        <tag k="note"
            v="Ne pas déplacer ce point, cf. - Do not move this node, see - http://wiki.openstreetmap.org/wiki/WikiProject_France/Repères_Géodésiques#Permanence_des_rep.C3.A8res" />
        <tag k="ref" v="38471A - 1" />
        <tag k="source" v="©IGN 2010 dans le cadre de la cartographie réglementaire" />
        <tag k="tourism" v="viewpoint" />
        <tag k="url"
            v="http://ancien-geodesie.ign.fr/fiche_point.asp?num_site=38471A&amp;no_ptg=01&amp;numero_f50=3334" />
        <tag k="wikipedia" v="fr:Écoutoux" />
    </node>
    <node id="670142552" lat="45.2876628" lon="5.7881908">
        <tag k="description"
            v="Dalle en béton : Tube en fer scellé : Axe et sommet - Point vu en place en 1987" />
        <tag k="ele" v="2083.08" />
        <tag k="man_made" v="survey_point" />
        <tag k="name" v="Chamechaude" />
        <tag k="natural" v="peak" />
        <tag k="note"
            v="Ne pas déplacer ce point, cf. - Do not move this node, see - http://wiki.openstreetmap.org/wiki/WikiProject_France/Repères_Géodésiques#Permanence_des_rep.C3.A8res" />
        <tag k="ref" v="3847201 - A" />
        <tag k="source" v="©IGN 2010 dans le cadre de la cartographie réglementaire" />
        <tag k="summit:cross" v="yes" />
        <tag k="url"
            v="http://ancien-geodesie.ign.fr/fiche_point.asp?num_site=3847201&amp;no_ptg=01&amp;numero_f50=3334" />
        <tag k="wikipedia" v="fr:Chamechaude" />
    </node>
    <node id="670142715" lat="45.2184560" lon="5.7334702">
        <tag k="description" v="Borne en granit gravée IGN (1949) - Point vu en place en 1950" />
        <tag k="ele" v="1046.32" />
        <tag k="man_made" v="survey_point" />
        <tag k="name" v="Mont Rachais" />
        <tag k="natural" v="peak" />
        <tag k="note"
            v="Ne pas déplacer ce point, cf. - Do not move this node, see - http://wiki.openstreetmap.org/wiki/WikiProject_France/Repères_Géodésiques#Permanence_des_rep.C3.A8res" />
        <tag k="ref" v="3851601 - 1" />
        <tag k="source" v="©IGN 2010 dans le cadre de la cartographie réglementaire" />
        <tag k="url"
            v="http://ancien-geodesie.ign.fr/fiche_point.asp?num_site=3851601&amp;no_ptg=01&amp;numero_f50=3234" />
        <tag k="wikipedia" v="fr:Mont Rachais" />
    </node>
    <node id="686543788" lat="44.9909174" lon="5.8455540">
        <tag k="ele" v="2183" />
        <tag k="name" v="Le Pérollier" />
        <tag k="natural" v="peak" />
    </node>
    <node id="687005186" lat="44.9842413" lon="5.8558068">
        <tag k="ele" v="2291" />
        <tag k="name" v="L'Oreille du Loup" />
        <tag k="natural" v="peak" />
    </node>
    <node id="712708158" lat="45.0984636" lon="5.7737901">
        <tag k="name" v="Pravena" />
        <tag k="natural" v="peak" />
    </node>
    <node id="838320076" lat="45.1630683" lon="5.9268136">
        <tag k="ele" v="2394" />
        <tag k="name" v="Grand Colon" />
        <tag k="natural" v="peak" />
    </node>
    <node id="939220266" lat="45.1475075" lon="5.6394189">
        <tag k="ele" v="1901" />
        <tag k="name" v="Moucherotte" />
        <tag k="natural" v="peak" />
        <tag k="tourism" v="viewpoint" />
    </node>
    <node id="1088194100" lat="45.1631384" lon="5.6398870">
        <tag k="ele" v="1456" />
        <tag k="name" v="Les 3 Pucelles" />
        <tag k="natural" v="peak" />
    </node>
    <node id="1251018329" lat="45.0052913" lon="5.8262932">
        <tag k="ele" v="2141" />
        <tag k="name" v="Le Grand Serre" />
        <tag k="natural" v="peak" />
        <tag k="source" v="GPS" />
    </node>
    <node id="1390589507" lat="45.0525077" lon="5.6407759">
        <tag k="ele" v="1270" />
        <tag k="name" v="Le Pieu" />
        <tag k="natural" v="peak" />
    </node>
    <node id="1390720961" lat="45.0232533" lon="5.6771811">
        <tag k="ele" v="926" />
        <tag k="name" v="Le grand Brion" />
        <tag k="natural" v="peak" />
    </node>
    <node id="1390732221" lat="45.0536832" lon="5.6919950">
        <tag k="ele" v="537" />
        <tag k="name" v="Le Petit Brion" />
        <tag k="natural" v="peak" />
    </node>
    <node id="1392648882" lat="45.3250919" lon="5.7641250">
        <tag k="ele" v="1867" />
        <tag k="name" v="Charmant Som" />
        <tag k="natural" v="peak" />
        <tag k="wikipedia" v="fr:Charmant Som" />
    </node>
    <node id="1396705728" lat="45.0556825" lon="5.6438281">
        <tag k="ele" v="1017" />
        <tag k="name" v="Rochers de brise Tourte" />
        <tag k="natural" v="peak" />
    </node>
    <node id="1486789456" lat="45.2966419" lon="5.8284153">
        <tag k="ele" v="1738" />
        <tag k="name" v="Bec Charvet" />
        <tag k="natural" v="peak" />
    </node>
    <node id="1510075046" lat="45.2439251" lon="5.5843788">
        <tag k="ele" v="1623" />
        <tag k="name" v="La Buffe" />
        <tag k="natural" v="peak" />
        <tag k="tourism" v="viewpoint" />
    </node>
    <node id="1600217665" lat="45.3077301" lon="5.7489380">
        <tag k="ele" v="1708" />
        <tag k="natural" v="peak" />
        <tag k="source" v="GPS" />
    </node>
    <node id="1685056116" lat="45.2352344" lon="5.5973979">
        <tag k="ele" v="1643" />
        <tag k="name" v="La Sure" />
        <tag k="natural" v="peak" />
        <tag k="source" v="GPS" />
    </node>
    <node id="1689391357" lat="45.2466513" lon="5.7866049">
        <tag k="name" v="L'Aiguille" />
        <tag k="natural" v="peak" />
    </node>
    <node id="1756229984" lat="45.3113168" lon="5.8354154">
        <tag k="alt_name" v="Dôme d'Arguille" />
        <tag k="ele" v="1760" />
        <tag k="hiking" v="yes" />
        <tag k="information" v="guidepost" />
        <tag k="name" v="Pravouta" />
        <tag k="natural" v="peak" />
        <tag k="tourism" v="information" />
    </node>
    <node id="1773707559" lat="45.3133502" lon="5.6964830">
        <tag k="ele" v="1838" />
        <tag k="name" v="Rocher de Lorzier" />
        <tag k="name:pl" v="Masyw Chartreuse" />
        <tag k="natural" v="peak" />
        <tag k="tourism" v="viewpoint" />
        <tag k="wikipedia" v="en:Chartreuse Mountains" />
    </node>
    <node id="1827457872" lat="45.2981009" lon="5.6975877">
        <tag k="ele" v="1845" />
        <tag k="name" v="Rochers de Chalves" />
        <tag k="natural" v="peak" />
    </node>
    <node id="1930165702" lat="45.1622972" lon="5.9366271">
        <tag k="ele" v="2402" />
        <tag k="name" v="Le Galeteau" />
        <tag k="natural" v="peak" />
    </node>
    <node id="1930165703" lat="45.1694452" lon="5.9893155">
        <tag k="ele" v="2926" />
        <tag k="name" v="Pic Central de Belledonne" />
        <tag k="natural" v="peak" />
        <tag k="source" v="GPS" />
    </node>
    <node id="1947966778" lat="45.2039883" lon="5.7242332">
        <tag k="ele" v="635" />
        <tag k="name" v="Mont Jalla" />
        <tag k="natural" v="peak" />
        <tag k="wikipedia" v="fr:Mont Jalla" />
    </node>
    <node id="2130925486" lat="45.1275410" lon="5.9304590">
        <tag k="ele" v="2439" />
        <tag k="name" v="Petit Van" />
        <tag k="natural" v="peak" />
        <tag k="source" v="GPS" />
    </node>
    <node id="2311742276" lat="45.3171732" lon="5.8372042">
        <tag k="ele" v="1768" />
        <tag k="name" v="Roc d'Arguille" />
        <tag k="natural" v="peak" />
    </node>
    <node id="2313619693" lat="45.2939755" lon="5.6606810">
        <tag k="ele" v="1089" />
        <tag k="name" v="Aiguille de Chalais" />
        <tag k="natural" v="peak" />
    </node>
    <node id="2331507141" lat="45.0287908" lon="5.6178633">
        <tag k="ele" v="1411" />
        <tag k="name" v="Rocher de l'Épiremmont" />
        <tag k="natural" v="peak" />
    </node>
    <node id="2441614661" lat="45.1536650" lon="5.8046118">
        <tag k="ele" v="937" />
        <tag k="natural" v="peak" />
    </node>
    <node id="2441625524" lat="45.1340886" lon="5.7587491">
        <tag k="ele" v="544 m" />
        <tag k="natural" v="peak" />
    </node>
    <node id="2475339665" lat="45.2671104" lon="5.7205577">
        <tag k="ele" v="1143" />
        <tag k="name" v="Aiguille de Quaix" />
        <tag k="natural" v="peak" />
        <tag k="source" v="©IGN 2010 dans le cadre de la cartographie réglementaire" />
    </node>
    <node id="2509607084" lat="45.1716404" lon="5.9593594">
        <tag k="ele" v="2790" />
        <tag k="name" v="Grande Lance de Domène" />
        <tag k="natural" v="peak" />
        <tag k="source" v="GPS+GLONASS" />
        <tag k="wikipedia" v="fr:Grande Lance de Domène" />
    </node>
    <node id="2722825129" lat="45.0688276" lon="5.6055398">
        <tag k="ele" v="2038" />
        <tag k="name" v="Rochers de l'Ours" />
        <tag k="natural" v="peak" />
    </node>
    <node id="2883538169" lat="45.2510406" lon="5.6704897">
        <tag k="name" v="Le Cornillon" />
        <tag k="natural" v="peak" />
    </node>
    <node id="2956262177" lat="45.1258501" lon="5.9025905">
        <tag k="ele" v="2253" />
        <tag k="name" v="Croix de Chamrousse" />
        <tag k="natural" v="peak" />
    </node>
    <node id="2956262178" lat="45.1931277" lon="5.9937155">
        <tag k="ele" v="2702" />
        <tag k="name" v="Les Trois Officiers" />
        <tag k="natural" v="peak" />
    </node>
    <node id="2956262179" lat="45.1940889" lon="5.9935248">
        <tag k="ele" v="2675" />
        <tag k="name" v="Pic de la Pierre" />
        <tag k="natural" v="peak" />
    </node>
    <node id="2956262180" lat="45.1202094" lon="5.9001637">
        <tag k="ele" v="2152" />
        <tag k="name" v="Rocher de la Perche" />
        <tag k="natural" v="peak" />
    </node>
    <node id="2956262181" lat="45.1978953" lon="5.9945302">
        <tag k="ele" v="2601" />
        <tag k="name" v="Sommet Colomb" />
        <tag k="natural" v="peak" />
    </node>
    <node id="2956262182" lat="45.1561316" lon="5.9642122">
        <tag k="ele" v="2727" />
        <tag k="name" v="Tête Noire" />
        <tag k="natural" v="peak" />
    </node>
    <node id="2956909780" lat="45.1437430" lon="5.9558929">
        <tag k="name" v="Pic de Mirebel" />
        <tag k="natural" v="peak" />
    </node>
    <node id="2956909781" lat="45.1275592" lon="5.9560325">
        <tag k="ele" v="2138" />
        <tag k="name" v="Pic de la Fare" />
        <tag k="natural" v="peak" />
    </node>
    <node id="3000785494" lat="45.2000793" lon="5.9814898">
        <tag k="name" v="Petit Replomb" />
        <tag k="natural" v="peak" />
    </node>
</osm>